NORAD_CAT_ID,OBJECT_NAME,OBJECT_TYPE,EPOCH,MEAN_MOTION,ECCENTRICITY,INCLINATION,RA_OF_ASC_NODE,ARG_OF_PERICENTER,MEAN_ANOMALY,BSTAR,MEAN_MOTION_DOT,MEAN_MOTION_DDOT,TLE_LINE0,TLE_LINE1,TLE_LINE2,SEMIMAJOR_AXIS,PERIOD,APOGEE,PERIGEE,DECAYED
51112.0,STARLINK-3374,PAYLOAD,2023-05-29 00:57:38,15.08840252,0.0001017,53.2161,168.5492,81.8349,278.2758,7.8424e-05,9.61e-06,0.0,0 STARLINK-3374,1 51112U 22005J   23149.04002708  .00000961  00000-0  78424-4 0  9994,2 51112  53.2161 168.5492 0001017  81.8349 278.2758 15.08840252 76666,6917.88,95.438,540.448,539.041,0.0
51112.0,STARLINK-3374,PAYLOAD,2023-05-29 10:29:57,15.08842019,0.0001035,53.216,166.765,81.146,278.9649,7.3267e-05,8.79e-06,0.0,0 STARLINK-3374,1 51112U 22005J   23149.43746603  .00000879  00000-0  73267-4 0  9994,2 51112  53.2160 166.7650 0001035  81.1460 278.9649 15.08842019 75611,6917.874,95.437,540.455,539.023,0.0
51112.0,STARLINK-3374,PAYLOAD,2023-05-29 18:26:52,15.08840631,0.0001033,53.216,165.2782,81.4211,278.6898,5.6925e-05,6.18e-06,0.0,0 STARLINK-3374,1 51112U 22005J   23149.76866708  .00000618  00000-0  56925-4 0  9992,2 51112  53.2160 165.2782 0001033  81.4211 278.6898 15.08840631 75662,6917.878,95.438,540.458,539.029,0.0
51112.0,STARLINK-3374,PAYLOAD,2023-05-30 10:20:44,15.08839748,0.0001051,53.2157,162.304,87.4832,272.628,2.9094e-05,1.75e-06,0.0,0 STARLINK-3374,1 51112U 22005J   23150.43106826  .00000175  00000-0  29094-4 0  9991,2 51112  53.2157 162.3040 0001051  87.4832 272.6280 15.08839748 76878,6917.881,95.438,540.473,539.019,0.0
51112.0,STARLINK-3374,PAYLOAD,2023-05-30 18:17:39,15.08841233,0.0001055,53.2158,160.8172,86.6255,273.4858,3.7507e-05,3.09e-06,0.0,0 STARLINK-3374,1 51112U 22005J   23150.76226695  .00000309  00000-0  37507-4 0  9991,2 51112  53.2158 160.8172 0001055  86.6255 273.4858 15.08841233 75817,6917.877,95.437,540.471,539.012,0.0
51112.0,STARLINK-3374,PAYLOAD,2023-05-31 10:11:31,15.08842573,0.0001065,53.216,157.8436,85.8325,274.2789,4.5137e-05,4.31e-06,0.0,0 STARLINK-3374,1 51112U 22005J   23151.42466529  .00000431  00000-0  45137-4 0  9991,2 51112  53.2160 157.8436 0001065  85.8325 274.2789 15.08842573 75910,6917.873,95.437,540.474,539.001,0.0
51112.0,STARLINK-3374,PAYLOAD,2023-06-01 00:29:59,15.0883639,0.0001055,53.2159,155.1672,85.4646,274.6466,3.0806e-05,2.02e-06,0.0,0 STARLINK-3374,1 51112U 22005J   23152.02082987  .00000202  00000-0  30806-4 0  9993,2 51112  53.2159 155.1672 0001055  85.4646 274.6466 15.08836390 77112,6917.891,95.438,540.486,539.027,0.0
51112.0,STARLINK-3374,PAYLOAD,2023-06-01 06:51:32,15.08837311,0.0001077,53.2158,153.9778,84.1337,275.9778,3.1999e-05,2.21e-06,0.0,0 STARLINK-3374,1 51112U 22005J   23152.28578980  .00000221  00000-0  31999-4 0  9999,2 51112  53.2158 153.9778 0001077  84.1337 275.9778 15.08837311 76046,6917.889,95.438,540.499,539.009,0.0
51112.0,STARLINK-3374,PAYLOAD,2023-06-02 09:53:05,15.08841593,0.0001117,53.216,148.9234,83.3574,276.7545,4.017e-05,3.52e-06,0.0,0 STARLINK-3374,1 51112U 22005J   23153.41186741  .00000352  00000-0  40170-4 0  9991,2 51112  53.2160 148.9234 0001117  83.3574 276.7545 15.08841593 77329,6917.876,95.437,540.513,538.968,0.0
51112.0,STARLINK-3374,PAYLOAD,2023-06-02 16:14:38,15.08837292,0.0001121,53.2159,147.7338,82.7022,277.4098,2.2407e-05,6.9e-07,0.0,0 STARLINK-3374,1 51112U 22005J   23153.67683124  .00000069  00000-0  22407-4 0  9994,2 51112  53.2159 147.7338 0001121  82.7022 277.4098 15.08837292 76258,6917.889,95.438,540.529,538.978,0.0
51112.0,STARLINK-3374,PAYLOAD,2023-06-03 00:11:34,15.08833746,0.0001148,53.2161,146.2473,84.7612,275.3511,3.5719e-05,2.81e-06,0.0,0 STARLINK-3374,1 51112U 22005J   23154.00803397  .00000281  00000-0  35719-4 0  9994,2 51112  53.2161 146.2473 0001148  84.7612 275.3511 15.08833746 77417,6917.9,95.438,540.559,538.97,0.0
51112.0,STARLINK-3374,PAYLOAD,2023-06-03 09:43:52,15.0883571,0.0001166,53.2162,144.4632,84.4318,275.6807,4.6863e-05,4.58e-06,0.0,0 STARLINK-3374,1 51112U 22005J   23154.40547385  .00000458  00000-0  46863-4 0  9998,2 51112  53.2162 144.4632 0001166  84.4318 275.6807 15.08835710 76362,6917.894,95.438,540.565,538.952,0.0
51112.0,STARLINK-3374,PAYLOAD,2023-06-03 16:05:25,15.08834331,0.0001167,53.2162,143.2737,84.3163,275.7962,1.4546e-05,-5.6e-07,0.0,0 STARLINK-3374,1 51112U 22005J   23154.67043629 -.00000056  00000-0  14546-4 0  9997,2 51112  53.2162 143.2737 0001167  84.3163 275.7962 15.08834331 76409,6917.898,95.438,540.57,538.955,0.0
51112.0,STARLINK-3374,PAYLOAD,2023-06-04 09:34:40,15.08837511,0.0001184,53.2162,140.0026,84.8245,275.2882,1.5645e-05,-3.9e-07,0.0,0 STARLINK-3374,1 51112U 22005J   23155.39907626 -.00000039  00000-0  15645-4 0  9995,2 51112  53.2162 140.0026 0001184  84.8245 275.2882 15.08837511 77624,6917.888,95.438,540.572,538.934,0.0
51112.0,STARLINK-3374,PAYLOAD,2023-06-04 22:17:45,15.08838355,0.0001168,53.2163,137.6236,87.4591,272.6535,7.0604e-05,8.36e-06,0.0,0 STARLINK-3374,1 51112U 22005J   23155.92899445  .00000836  00000-0  70604-4 0  9993,2 51112  53.2163 137.6236 0001168  87.4591 272.6535 15.08838355 76593,6917.885,95.438,540.558,538.942,0.0
51112.0,STARLINK-3374,PAYLOAD,2023-06-05 07:50:03,15.08842996,0.0001183,53.2163,135.8393,86.5853,273.5275,9.655e-05,1.249e-05,0.0,0 STARLINK-3374,1 51112U 22005J   23156.32643090  .00001249  00000-0  96550-4 0  9998,2 51112  53.2163 135.8393 0001183  86.5853 273.5275 15.08842996 77762,6917.871,95.437,540.555,538.918,0.0
51112.0,STARLINK-3374,PAYLOAD,2023-06-05 22:08:32,15.08833397,0.0001254,53.2164,133.1631,86.3492,273.7643,3.0141e-05,1.92e-06,0.0,0 STARLINK-3374,1 51112U 22005J   23156.92260068  .00000192  00000-0  30141-4 0  9994,2 51112  53.2164 133.1631 0001254  86.3492 273.7643 15.08833397 76748,6917.901,95.438,540.633,538.898,0.0
51112.0,STARLINK-3374,PAYLOAD,2023-06-06 07:40:51,15.08834836,0.0001252,53.2161,131.3785,84.4974,275.616,2.2689e-05,7.3e-07,0.0,0 STARLINK-3374,1 51112U 22005J   23157.32004149  .00000073  00000-0  22689-4 0  9991,2 51112  53.2161 131.3785 0001252  84.4974 275.6160 15.08834836 76808,6917.896,95.438,540.627,538.895,0.0
51112.0,STARLINK-3374,PAYLOAD,2023-06-06 21:59:19,15.08841945,0.0001292,53.2163,128.7019,85.5456,274.5684,3.7372e-05,3.07e-06,0.0,0 STARLINK-3374,1 51112U 22005J   23157.91619696  .00000307  00000-0  37372-4 0  9990,2 51112  53.2163 128.7019 0001292  85.5456 274.5684 15.08841945 76898,6917.874,95.437,540.633,538.846,0.0
51112.0,STARLINK-3374,PAYLOAD,2023-06-07 04:20:51,15.08847783,0.0001227,53.216,127.5124,87.6042,272.5091,5.7898e-05,6.34e-06,0.0,0 STARLINK-3374,1 51112U 22005J   23158.18115140  .00000634  00000-0  57898-4 0  9993,2 51112  53.2160 127.5124 0001227  87.6042 272.5091 15.08847783 76932,6917.857,95.437,540.57,538.873,0.0
51112.0,STARLINK-3374,PAYLOAD,2023-06-07 15:28:33,15.08843066,0.0001212,53.2164,125.4313,84.5524,275.5607,7.6346e-05,9.27e-06,0.0,0 STARLINK-3374,1 51112U 22005J   23158.64483260  .00000927  00000-0  76346-4 0  9999,2 51112  53.2164 125.4313 0001212  84.5524 275.5607 15.08843066 77003,6917.871,95.437,540.574,538.898,0.0
51112.0,STARLINK-3374,PAYLOAD,2023-06-08 01:00:52,15.08835858,0.0001236,53.2167,123.6472,85.9695,274.1439,3.5172e-05,2.72e-06,0.0,0 STARLINK-3374,1 51112U 22005J   23159.04227896  .00000272  00000-0  35172-4 0  9990,2 51112  53.2167 123.6472 0001236  85.9695 274.1439 15.08835858 78179,6917.893,95.438,540.613,538.903,0.0
51112.0,STARLINK-3374,PAYLOAD,2023-06-08 07:22:25,15.08840993,0.0001241,53.2168,122.457,91.6242,268.4892,7.0318e-05,8.31e-06,0.0,0 STARLINK-3374,1 51112U 22005J   23159.30723464  .00000831  00000-0  70318-4 0  9993,2 51112  53.2168 122.4570 0001241  91.6242 268.4892 15.08840993 77101,6917.877,95.437,540.601,538.884,0.0
51112.0,STARLINK-3374,PAYLOAD,2023-06-09 04:02:25,15.08845104,0.0001234,53.2164,118.5917,88.232,271.8814,-1.875e-05,-5.86e-06,0.0,0 STARLINK-3374,1 51112U 22005J   23160.16835448 -.00000586  00000-0 -18750-4 0  9996,2 51112  53.2164 118.5917 0001234  88.2320 271.8814 15.08845104 77234,6917.865,95.437,540.583,538.876,0.0
51112.0,STARLINK-3374,PAYLOAD,2023-06-09 21:31:40,15.0882829,0.0001319,53.2163,115.3209,94.0121,266.1021,8.4039e-05,1.049e-05,0.0,0 STARLINK-3374,1 51112U 22005J   23160.89700231  .00001049  00000-0  84039-4 0  9993,2 51112  53.2163 115.3209 0001319  94.0121 266.1021 15.08828290 77346,6917.916,95.438,540.694,538.869,0.0
51112.0,STARLINK-3374,PAYLOAD,2023-06-10 03:53:13,15.08831222,0.0001287,53.2164,114.1315,94.2618,265.8522,9.7997e-05,1.272e-05,0.0,0 STARLINK-3374,1 51112U 22005J   23161.16196149  .00001272  00000-0  97997-4 0  9996,2 51112  53.2164 114.1315 0001287  94.2618 265.8522 15.08831222 78497,6917.907,95.438,540.663,538.882,0.0
51112.0,STARLINK-3374,PAYLOAD,2023-06-10 13:25:32,15.08834912,0.0001176,53.2166,112.3481,90.2538,269.8589,-1.4698e-05,-5.22e-06,0.0,0 STARLINK-3374,1 51112U 22005J   23161.55940288 -.00000522  00000-0 -14698-4 0  9996,2 51112  53.2166 112.3481 0001176  90.2538 269.8589 15.08834912 77447,6917.896,95.438,540.574,538.947,0.0
51112.0,STARLINK-3374,PAYLOAD,2023-06-10 21:22:28,15.08833781,0.0001194,53.2167,110.8611,93.6059,266.5069,-5.3875e-05,-1.145e-05,0.0,0 STARLINK-3374,1 51112U 22005J   23161.89060711 -.00001145  00000-0 -53875-4 0  9999,2 51112  53.2167 110.8611 0001194  93.6059 266.5069 15.08833781 77496,6917.899,95.438,540.59,538.938,0.0
51112.0,STARLINK-3374,PAYLOAD,2023-06-11 06:54:46,15.08838989,0.0001204,53.217,109.0774,101.9308,258.182,-1.1498e-05,-4.71e-06,0.0,0 STARLINK-3374,1 51112U 22005J   23162.28804334 -.00000471  00000-0 -11498-4 0  9996,2 51112  53.2170 109.0774 0001204 101.9308 258.1820 15.08838989 78669,6917.883,95.438,540.581,538.916,0.0
51112.0,STARLINK-3374,PAYLOAD,2023-06-11 13:16:19,15.08838578,0.0001168,53.2174,107.8879,93.6466,266.466,-1.2617e-05,-4.89e-06,0.0,0 STARLINK-3374,1 51112U 22005J   23162.55300424 -.00000489  00000-0 -12617-4 0  9990,2 51112  53.2174 107.8879 0001168  93.6466 266.4660 15.08838578 77595,6917.885,95.438,540.558,538.942,0.0
